[{"OBJECT_NAME":"KUIPER-00023","OBJECT_ID":"2025-088P","EPOCH":"2026-03-09T12:21:02.638368","MEAN_MOTION":14.79934157,"ECCENTRICITY":0.00084141,"INCLINATION":51.899,"RA_OF_ASC_NODE":106.3195,"ARG_OF_PERICENTER":96.3208,"MEAN_ANOMALY":263.8713,"EPHEMERIS_TYPE":0,"CLASSIFICATION_TYPE":"U","NORAD_CAT_ID":63737,"ELEMENT_SET_NO":999,"REV_AT_EPOCH":4773,"BSTAR":0.00062479522,"MEAN_MOTION_DOT":4.546e-5,"MEAN_MOTION_DDOT":0},{"OBJECT_NAME":"SL-16 DEB","OBJECT_ID":"1992-093ED","EPOCH":"2026-03-09T22:20:49.738272","MEAN_MOTION":14.83105755,"ECCENTRICITY":0.00397892,"INCLINATION":71.5066,"RA_OF_ASC_NODE":17.7297,"ARG_OF_PERICENTER":237.2775,"MEAN_ANOMALY":180.4051,"EPHEMERIS_TYPE":0,"CLASSIFICATION_TYPE":"U","NORAD_CAT_ID":22436,"ELEMENT_SET_NO":999,"REV_AT_EPOCH":75077,"BSTAR":0.0013947857,"MEAN_MOTION_DOT":0.00011488,"MEAN_MOTION_DDOT":0}]
